{
    "links": {
        "self": "http://www.neowsapp.com/rest/v1/neo/3842589?api_key=iIulBulltgU6a56xZRHN4H3l9WmuAYTsLGpBGhQ2"
    },
    "id": "3842589",
    "neo_reference_id": "3842589",
    "name": "(2019 KE2)",
    "designation": "2019 KE2",
    "nasa_jpl_url": "http://ssd.jpl.nasa.gov/sbdb.cgi?sstr=3842589",
    "absolute_magnitude_h": 24.3,
    "estimated_diameter": {
        "kilometers": {
            "estimated_diameter_min": 0.0366906138,
            "estimated_diameter_max": 0.0820427065
        },
        "meters": {
            "estimated_diameter_min": 36.6906137531,
            "estimated_diameter_max": 82.0427064882
        },
        "miles": {
            "estimated_diameter_min": 0.0227984834,
            "estimated_diameter_max": 0.0509789586
        },
        "feet": {
            "estimated_diameter_min": 120.3760332259,
            "estimated_diameter_max": 269.1689931548
        }
    },
    "is_potentially_hazardous_asteroid": false,
    "close_approach_data": [
        {
            "close_approach_date": "2019-06-04",
            "close_approach_date_full": "2019-Jun-04 11:22",
            "epoch_date_close_approach": 1559647320000,
            "relative_velocity": {
                "kilometers_per_second": "9.2727126692",
                "kilometers_per_hour": "33381.7656090076",
                "miles_per_hour": "20742.1309696637"
            },
            "miss_distance": {
                "astronomical": "0.0509529875",
                "lunar": "19.8207121375",
                "kilometers": "7622458.400136625",
                "miles": "4736376.021170425"
            },
            "orbiting_body": "Earth"
        },
        {
            "close_approach_date": "2019-10-09",
            "close_approach_date_full": "2019-Oct-09 06:23",
            "epoch_date_close_approach": 1570602180000,
            "relative_velocity": {
                "kilometers_per_second": "6.9192519974",
                "kilometers_per_hour": "24909.3071905271",
                "miles_per_hour": "15477.6747929139"
            },
            "miss_distance": {
                "astronomical": "0.3332271258",
                "lunar": "129.6253519362",
                "kilometers": "49850068.245902046",
                "miles": "30975396.0598023948"
            },
            "orbiting_body": "Earth"
        },
        {
            "close_approach_date": "2069-11-24",
            "close_approach_date_full": "2069-Nov-24 06:33",
            "epoch_date_close_approach": 3152500380000,
            "relative_velocity": {
                "kilometers_per_second": "7.5266204282",
                "kilometers_per_hour": "27095.8335414637",
                "miles_per_hour": "16836.2972358056"
            },
            "miss_distance": {
                "astronomical": "0.0931992371",
                "lunar": "36.2545032319",
                "kilometers": "13942407.355784977",
                "miles": "8663410.2032156026"
            },
            "orbiting_body": "Mars"
        },
        {
            "close_approach_date": "2097-06-04",
            "close_approach_date_full": "2097-Jun-04 07:21",
            "epoch_date_close_approach": 4021168860000,
            "relative_velocity": {
                "kilometers_per_second": "9.2518161543",
                "kilometers_per_hour": "33306.5381554118",
                "miles_per_hour": "20695.3875555113"
            },
            "miss_distance": {
                "astronomical": "0.0532479213",
                "lunar": "20.7134413857",
                "kilometers": "7965775.608407631",
                "miles": "4949703.4422660678"
            },
            "orbiting_body": "Earth"
        },
        {
            "close_approach_date": "2097-10-10",
            "close_approach_date_full": "2097-Oct-10 03:27",
            "epoch_date_close_approach": 4032214020000,
            "relative_velocity": {
                "kilometers_per_second": "7.0367627759",
                "kilometers_per_hour": "25332.34599337",
                "miles_per_hour": "15740.5346534915"
            },
            "miss_distance": {
                "astronomical": "0.3311784638",
                "lunar": "128.8284224182",
                "kilometers": "49543592.774352106",
                "miles": "30784961.0323708228"
            },
            "orbiting_body": "Earth"
        }
    ],
    "orbital_data": {
        "orbit_id": "4",
        "orbit_determination_date": "2019-06-03 06:43:38",
        "first_observation_date": "2019-05-27",
        "last_observation_date": "2019-06-03",
        "data_arc_in_days": 7,
        "observations_used": 34,
        "orbit_uncertainty": "8",
        "minimum_orbit_intersection": ".01416",
        "jupiter_tisserand_invariant": "4.812",
        "epoch_osculation": "2458631.5",
        "eccentricity": ".2849188818270684",
        "semi_major_axis": "1.345008522341285",
        "inclination": "14.54043519581445",
        "ascending_node_longitude": "67.17893305858681",
        "orbital_period": "569.7521610289626",
        "perihelion_distance": ".9617901981079284",
        "perihelion_argument": "225.7286141419607",
        "aphelion_distance": "1.728226846574642",
        "perihelion_time": "2458676.059671816009",
        "mean_anomaly": "331.844807354846",
        "mean_motion": ".6318536806422045",
        "equinox": "J2000",
        "orbit_class": {
            "orbit_class_type": "APO",
            "orbit_class_description": "Near-Earth asteroid orbits which cross the Earth’s orbit similar to that of 1862 Apollo",
            "orbit_class_range": "a (semi-major axis) > 1.0 AU; q (perihelion) < 1.017 AU"
        }
    },
    "is_sentry_object": false
}